start=new Date('2023-02-07T00:00:00.000Z').valueOf();
sats=[{"APOAPSIS":"565.759","REF_FRAME":"TEME","EPHEMERIS_TYPE":"0","INCLINATION":"97.6510","RA_OF_ASC_NODE":"280.6795","MEAN_ELEMENT_THEORY":"SGP4","OBJECT_TYPE":"PAYLOAD","CLASSIFICATION_TYPE":"U","EPOCH":"2023-02-06T17:32:47.876352","RCS_SIZE":"LARGE","DECAY_DATE":null,"MEAN_MOTION_DOT":"0.00003160","FILE":"3776034","SITE":"AFWTR","ELEMENT_SET_NO":"999","SEMIMAJOR_AXIS":"6941.099","MEAN_ANOMALY":"267.1663","PERIAPSIS":"560.169","BSTAR":"0.00025041000000","COUNTRY_CODE":"US","PERIOD":"95.918","TLE_LINE2":"2 53660  97.6510 280.6795 0004027  93.0022 267.1663 15.01275502 24157","ARG_OF_PERICENTER":"93.0022","REV_AT_EPOCH":"2415","MEAN_MOTION":"15.01275502","NORAD_CAT_ID":"53660","GP_ID":"224655289","ECCENTRICITY":"0.00040270","LAUNCH_DATE":"2022-08-31","MEAN_MOTION_DDOT":"0.0000000000000","TIME_SYSTEM":"UTC","CENTER_NAME":"EARTH","OBJECT_NAME":"STARLINK-4473","TLE_LINE1":"1 53660U 22105N   23037.73110968  .00003160  00000-0  25041-3 0  9995","OBJECT_ID":"2022-105N"},{"LAUNCH_DATE":"2022-08-31","MEAN_MOTION_DDOT":"0.0000000000000","TIME_SYSTEM":"UTC","CENTER_NAME":"EARTH","NORAD_CAT_ID":"53661","MEAN_MOTION":"15.01271442","GP_ID":"224654044","ECCENTRICITY":"0.00040370","TLE_LINE1":"1 53661U 22105P   23037.66816168  .00000400  00000-0  35701-4 0  9992","OBJECT_ID":"2022-105P","OBJECT_NAME":"STARLINK-4472","TLE_LINE2":"2 53661  97.6520 280.6194 0004037  85.0584 275.1101 15.01271442 24141","REV_AT_EPOCH":"2414","ARG_OF_PERICENTER":"85.0584","FILE":"3776034","SEMIMAJOR_AXIS":"6941.112","SITE":"AFWTR","ELEMENT_SET_NO":"999","DECAY_DATE":null,"MEAN_MOTION_DOT":"0.00000400","PERIOD":"95.919","COUNTRY_CODE":"US","PERIAPSIS":"560.174","MEAN_ANOMALY":"275.1101","BSTAR":"0.00003570100000","INCLINATION":"97.6520","MEAN_ELEMENT_THEORY":"SGP4","RA_OF_ASC_NODE":"280.6194","REF_FRAME":"TEME","APOAPSIS":"565.779","EPHEMERIS_TYPE":"0","EPOCH":"2023-02-06T16:02:09.169152","CLASSIFICATION_TYPE":"U","RCS_SIZE":"LARGE","OBJECT_TYPE":"PAYLOAD"},{"TLE_LINE2":"2 53662  97.6520 280.6719 0003389  89.9980 270.1633 15.01276671 24152","ARG_OF_PERICENTER":"89.9980","REV_AT_EPOCH":"2415","GP_ID":"224654294","ECCENTRICITY":"0.00033890","MEAN_MOTION":"15.01276671","NORAD_CAT_ID":"53662","TIME_SYSTEM":"UTC","CENTER_NAME":"EARTH","MEAN_MOTION_DDOT":"0.0000000000000","LAUNCH_DATE":"2022-08-31","OBJECT_NAME":"STARLINK-4357","OBJECT_ID":"2022-105Q","TLE_LINE1":"1 53662U 22105Q   23037.72740253  .00001209  00000-0  98620-4 0  9998","EPHEMERIS_TYPE":"0","REF_FRAME":"TEME","APOAPSIS":"565.313","RA_OF_ASC_NODE":"280.6719","MEAN_ELEMENT_THEORY":"SGP4","INCLINATION":"97.6520","OBJECT_TYPE":"PAYLOAD","RCS_SIZE":"LARGE","EPOCH":"2023-02-06T17:27:27.578592","CLASSIFICATION_TYPE":"U","MEAN_MOTION_DOT":"0.00001209","DECAY_DATE":null,"SEMIMAJOR_AXIS":"6941.095","SITE":"AFWTR","ELEMENT_SET_NO":"999","FILE":"3776034","BSTAR":"0.00009862000000","MEAN_ANOMALY":"270.1633","PERIAPSIS":"560.608","COUNTRY_CODE":"US","PERIOD":"95.918"},{"PERIOD":"95.919","COUNTRY_CODE":"US","BSTAR":"0.00019090000000","PERIAPSIS":"560.036","MEAN_ANOMALY":"272.2892","SITE":"AFWTR","ELEMENT_SET_NO":"999","SEMIMAJOR_AXIS":"6941.142","FILE":"3776034","MEAN_MOTION_DOT":"0.00002394","DECAY_DATE":null,"RCS_SIZE":"LARGE","CLASSIFICATION_TYPE":"U","EPOCH":"2023-02-06T15:59:29.533056","OBJECT_TYPE":"PAYLOAD","MEAN_ELEMENT_THEORY":"SGP4","RA_OF_ASC_NODE":"280.6142","INCLINATION":"97.6521","EPHEMERIS_TYPE":"0","APOAPSIS":"565.979","REF_FRAME":"TEME","OBJECT_ID":"2022-105R","TLE_LINE1":"1 53663U 22105R   23037.66631404  .00002394  00000-0  19090-3 0  9998","OBJECT_NAME":"STARLINK-4457","CENTER_NAME":"EARTH","TIME_SYSTEM":"UTC","LAUNCH_DATE":"2022-08-31","MEAN_MOTION_DDOT":"0.0000000000000","GP_ID":"224654542","ECCENTRICITY":"0.00042810","NORAD_CAT_ID":"53663","MEAN_MOTION":"15.01261547","REV_AT_EPOCH":"2414","ARG_OF_PERICENTER":"87.8822","TLE_LINE2":"2 53663  97.6521 280.6142 0004281  87.8822 272.2892 15.01261547 24143"},{"PERIAPSIS":"561.036","MEAN_ANOMALY":"270.0170","BSTAR":"0.00005360500000","PERIOD":"95.919","COUNTRY_CODE":"US","DECAY_DATE":null,"MEAN_MOTION_DOT":"0.00000630","FILE":"3776034","SITE":"AFWTR","ELEMENT_SET_NO":"999","SEMIMAJOR_AXIS":"6941.116","OBJECT_TYPE":"PAYLOAD","EPOCH":"2023-02-06T15:48:49.292640","CLASSIFICATION_TYPE":"U","RCS_SIZE":"LARGE","APOAPSIS":"564.926","REF_FRAME":"TEME","EPHEMERIS_TYPE":"0","INCLINATION":"97.6529","MEAN_ELEMENT_THEORY":"SGP4","RA_OF_ASC_NODE":"280.6009","OBJECT_NAME":"STARLINK-4471","TLE_LINE1":"1 53664U 22105S   23037.65890385  .00000630  00000-0  53605-4 0  9995","OBJECT_ID":"2022-105S","NORAD_CAT_ID":"53664","MEAN_MOTION":"15.01269978","GP_ID":"224654791","ECCENTRICITY":"0.00028020","LAUNCH_DATE":"2022-08-31","MEAN_MOTION_DDOT":"0.0000000000000","CENTER_NAME":"EARTH","TIME_SYSTEM":"UTC","ARG_OF_PERICENTER":"90.1375","REV_AT_EPOCH":"2414","TLE_LINE2":"2 53664  97.6529 280.6009 0002802  90.1375 270.0170 15.01269978 24142"},{"FILE":"3776034","SITE":"AFWTR","SEMIMAJOR_AXIS":"6941.091","ELEMENT_SET_NO":"999","DECAY_DATE":null,"MEAN_MOTION_DOT":"0.00000723","COUNTRY_CODE":"US","PERIOD":"95.918","MEAN_ANOMALY":"277.6044","PERIAPSIS":"560.170","BSTAR":"0.00006082000000","INCLINATION":"97.6514","RA_OF_ASC_NODE":"280.6768","MEAN_ELEMENT_THEORY":"SGP4","APOAPSIS":"565.741","REF_FRAME":"TEME","EPHEMERIS_TYPE":"0","CLASSIFICATION_TYPE":"U","EPOCH":"2023-02-06T17:30:28.720512","RCS_SIZE":"LARGE","OBJECT_TYPE":"PAYLOAD","LAUNCH_DATE":"2022-08-31","MEAN_MOTION_DDOT":"0.0000000000000","CENTER_NAME":"EARTH","TIME_SYSTEM":"UTC","MEAN_MOTION":"15.01278236","NORAD_CAT_ID":"53665","ECCENTRICITY":"0.00040130","GP_ID":"224653546","TLE_LINE1":"1 53665U 22105T   23037.72949908  .00000723  00000-0  60820-4 0  9990","OBJECT_ID":"2022-105T","OBJECT_NAME":"STARLINK-4334","TLE_LINE2":"2 53665  97.6514 280.6768 0004013  82.5636 277.6044 15.01278236 24151","REV_AT_EPOCH":"2415","ARG_OF_PERICENTER":"82.5636"},{"DECAY_DATE":null,"MEAN_MOTION_DOT":"0.00001943","FILE":"3776034","ELEMENT_SET_NO":"999","SITE":"AFWTR","SEMIMAJOR_AXIS":"6941.130","MEAN_ANOMALY":"269.7708","PERIAPSIS":"561.505","BSTAR":"0.00015578000000","COUNTRY_CODE":"US","PERIOD":"95.919","REF_FRAME":"TEME","APOAPSIS":"564.484","EPHEMERIS_TYPE":"0","INCLINATION":"97.6551","RA_OF_ASC_NODE":"280.5886","MEAN_ELEMENT_THEORY":"SGP4","OBJECT_TYPE":"PAYLOAD","EPOCH":"2023-02-06T15:43:50.477376","CLASSIFICATION_TYPE":"U","RCS_SIZE":"LARGE","MEAN_MOTION":"15.01265517","NORAD_CAT_ID":"53666","GP_ID":"224653795","ECCENTRICITY":"0.00021460","LAUNCH_DATE":"2022-08-31","MEAN_MOTION_DDOT":"0.0000000000000","TIME_SYSTEM":"UTC","CENTER_NAME":"EARTH","OBJECT_NAME":"STARLINK-4449","TLE_LINE1":"1 53666U 22105U   23037.65544534  .00001943  00000-0  15578-3 0  9993","OBJECT_ID":"2022-105U","TLE_LINE2":"2 53666  97.6551 280.5886 0002146  90.3762 269.7708 15.01265517 24141","ARG_OF_PERICENTER":"90.3762","REV_AT_EPOCH":"2414"},{"OBJECT_ID":"2022-105V","TLE_LINE1":"1 53667U 22105V   23037.66260888  .00001978  00000-0  15853-3 0  9996","OBJECT_NAME":"STARLINK-4406","CENTER_NAME":"EARTH","TIME_SYSTEM":"UTC","MEAN_MOTION_DDOT":"0.0000000000000","LAUNCH_DATE":"2022-08-31","GP_ID":"224655040","ECCENTRICITY":"0.00037190","NORAD_CAT_ID":"53667","MEAN_MOTION":"15.01262576","REV_AT_EPOCH":"2414","ARG_OF_PERICENTER":"94.0953","TLE_LINE2":"2 53667  97.6517 280.6115 0003719  94.0953 266.0696 15.01262576 24148","PERIOD":"95.919","COUNTRY_CODE":"US","BSTAR":"0.00015853000000","PERIAPSIS":"560.422","MEAN_ANOMALY":"266.0696","ELEMENT_SET_NO":"999","SITE":"AFWTR","SEMIMAJOR_AXIS":"6941.139","FILE":"3776034","MEAN_MOTION_DOT":"0.00001978","DECAY_DATE":null,"RCS_SIZE":"LARGE","EPOCH":"2023-02-06T15:54:09.407232","CLASSIFICATION_TYPE":"U","OBJECT_TYPE":"PAYLOAD","MEAN_ELEMENT_THEORY":"SGP4","RA_OF_ASC_NODE":"280.6115","INCLINATION":"97.6517","EPHEMERIS_TYPE":"0","APOAPSIS":"565.585","REF_FRAME":"TEME"},{"ELEMENT_SET_NO":"999","SITE":"AFWTR","SEMIMAJOR_AXIS":"6941.075","FILE":"3776034","MEAN_MOTION_DOT":"0.00012808","DECAY_DATE":null,"COUNTRY_CODE":"US","PERIOD":"95.918","BSTAR":"0.00099936000000","MEAN_ANOMALY":"265.1529","PERIAPSIS":"561.421","RA_OF_ASC_NODE":"280.6537","MEAN_ELEMENT_THEORY":"SGP4","INCLINATION":"97.6549","EPHEMERIS_TYPE":"0","REF_FRAME":"TEME","APOAPSIS":"564.460","RCS_SIZE":"LARGE","CLASSIFICATION_TYPE":"U","EPOCH":"2023-02-06T17:19:28.093152","OBJECT_TYPE":"PAYLOAD","CENTER_NAME":"EARTH","TIME_SYSTEM":"UTC","MEAN_MOTION_DDOT":"0.0000000000000","LAUNCH_DATE":"2022-08-31","GP_ID":"224655290","ECCENTRICITY":"0.00021890","MEAN_MOTION":"15.01283154","NORAD_CAT_ID":"53668","OBJECT_ID":"2022-105W","TLE_LINE1":"1 53668U 22105W   23037.72185293  .00012808  00000-0  99936-3 0  9998","OBJECT_NAME":"STARLINK-4458","TLE_LINE2":"2 53668  97.6549 280.6537 0002189  94.9945 265.1529 15.01283154 24153","REV_AT_EPOCH":"2415","ARG_OF_PERICENTER":"94.9945"},{"LAUNCH_DATE":"2022-08-31","MEAN_MOTION_DDOT":"0.0000000000000","TIME_SYSTEM":"UTC","CENTER_NAME":"EARTH","MEAN_MOTION":"15.01274164","NORAD_CAT_ID":"53669","GP_ID":"224654045","ECCENTRICITY":"0.00026960","TLE_LINE1":"1 53669U 22105X   23037.65705359  .00006410  00000-0  50295-3 0  9999","OBJECT_ID":"2022-105X","OBJECT_NAME":"STARLINK-4464","TLE_LINE2":"2 53669  97.6547 280.5910 0002696  91.2926 268.8607 15.01274164 24145","REV_AT_EPOCH":"2414","ARG_OF_PERICENTER":"91.2926","FILE":"3776034","SITE":"AFWTR","SEMIMAJOR_AXIS":"6941.103","ELEMENT_SET_NO":"999","DECAY_DATE":null,"MEAN_MOTION_DOT":"0.00006410","COUNTRY_CODE":"US","PERIOD":"95.919","MEAN_ANOMALY":"268.8607","PERIAPSIS":"561.097","BSTAR":"0.00050295000000","INCLINATION":"97.6547","RA_OF_ASC_NODE":"280.5910","MEAN_ELEMENT_THEORY":"SGP4","REF_FRAME":"TEME","APOAPSIS":"564.840","EPHEMERIS_TYPE":"0","CLASSIFICATION_TYPE":"U","EPOCH":"2023-02-06T15:46:09.430176","RCS_SIZE":"LARGE","OBJECT_TYPE":"PAYLOAD"}];
